IRIDIUM 106             
1 41917U 17003A   24037.66359012  .00000041  00000+0  74612-5 0  9990
2 41917  86.3928  88.5869 0001987 103.5927 256.5490 14.34218310369721
IRIDIUM 103             
1 41918U 17003B   24037.65090452  .00000233  00000+0  76219-4 0  9997
2 41918  86.3932  88.4948 0001971  86.5832 273.5590 14.34217020369741
IRIDIUM 109             
1 41919U 17003C   24037.65724871  .00000150  00000+0  46487-4 0  9999
2 41919  86.3932  88.5375 0002333  88.4134 271.7329 14.34217567369719
IRIDIUM 102             
1 41920U 17003D   24037.69530358  .00000305  00000+0  10174-3 0  9995
2 41920  86.3931  88.4633 0002241  88.8465 271.2988 14.34218321369800
IRIDIUM 105             
1 41921U 17003E   24037.52643241  .00000279  00000+0  92593-4 0  9990
2 41921  86.3931  56.9309 0002166  89.4716 270.6728 14.34231731371632
IRIDIUM 104             
1 41922U 17003F   24037.63822093  .00000130  00000+0  39214-4 0  9994
2 41922  86.3933  88.5171 0002205  89.4866 270.6583 14.34218178369785
IRIDIUM 114             
1 41923U 17003G   24037.64456425  .00000089  00000+0  24790-4 0  9994
2 41923  86.3931  88.5005 0002138 101.1139 259.0297 14.34217468369762
IRIDIUM 108             
1 41924U 17003H   24037.95192609  .00000269  00000+0  88997-4 0  9999
2 41924  86.3924  56.6858 0002126  98.5491 261.5946 14.34217808371663
